[{"OBJECT_NAME":"TIANYAN 02","OBJECT_ID":"2019-093D","EPOCH":"2026-03-09T23:02:03.462720","MEAN_MOTION":15.03854369,"ECCENTRICITY":0.0013821,"INCLINATION":97.7892,"RA_OF_ASC_NODE":162.9238,"ARG_OF_PERICENTER":3.6432,"MEAN_ANOMALY":356.4891,"EPHEMERIS_TYPE":0,"CLASSIFICATION_TYPE":"U","NORAD_CAT_ID":44882,"ELEMENT_SET_NO":999,"REV_AT_EPOCH":33769,"BSTAR":0.0006063204,"MEAN_MOTION_DOT":8.303e-5,"MEAN_MOTION_DDOT":0},{"OBJECT_NAME":"STARLINK-3671","OBJECT_ID":"2022-025S","EPOCH":"2026-03-09T05:20:16.096128","MEAN_MOTION":15.06419252,"ECCENTRICITY":0.00012793,"INCLINATION":53.0555,"RA_OF_ASC_NODE":32.9827,"ARG_OF_PERICENTER":85.7443,"MEAN_ANOMALY":274.3692,"EPHEMERIS_TYPE":0,"CLASSIFICATION_TYPE":"U","NORAD_CAT_ID":51972,"ELEMENT_SET_NO":999,"REV_AT_EPOCH":22085,"BSTAR":0.0002181368,"MEAN_MOTION_DOT":2.971e-5,"MEAN_MOTION_DDOT":0}]
